[{"OBJECT_NAME":"PRAETORIAN SDA_603","OBJECT_ID":"2025-203B","EPOCH":"2026-03-09T13:37:04.528992","MEAN_MOTION":13.83903559,"ECCENTRICITY":0.001079,"INCLINATION":81.3003,"RA_OF_ASC_NODE":102.8981,"ARG_OF_PERICENTER":102.3539,"MEAN_ANOMALY":257.8826,"EPHEMERIS_TYPE":0,"CLASSIFICATION_TYPE":"U","NORAD_CAT_ID":65566,"ELEMENT_SET_NO":999,"REV_AT_EPOCH":2492,"BSTAR":0.0001631,"MEAN_MOTION_DOT":1.93e-6,"MEAN_MOTION_DDOT":0},{"OBJECT_NAME":"THOR ABLESTAR DEB","OBJECT_ID":"1961-015BZ","EPOCH":"2026-03-09T13:28:49.232352","MEAN_MOTION":13.95705171,"ECCENTRICITY":0.0066222,"INCLINATION":66.8396,"RA_OF_ASC_NODE":114.2922,"ARG_OF_PERICENTER":160.0211,"MEAN_ANOMALY":200.3487,"EPHEMERIS_TYPE":0,"CLASSIFICATION_TYPE":"U","NORAD_CAT_ID":244,"ELEMENT_SET_NO":999,"REV_AT_EPOCH":28523,"BSTAR":0.00016365,"MEAN_MOTION_DOT":1.5e-6,"MEAN_MOTION_DDOT":0}]
